{"type": "FeatureCollection", "features": [ {"type": "Feature", "properties": {"norad_id": 66455, "name": "ATLAS 5 CENTAUR R/B", "group": "last-30-days", "lat": -5.782287040682302, "lon": -138.02866746122092, "alt_km": 18046.288998744963, "timestamp": "2025-12-10T21:43:20.861158+00:00", "meta": {"OBJECT_NAME": "ATLAS 5 CENTAUR R/B", "OBJECT_ID": "2025-261B", "EPOCH": "2025-12-10T08:02:25.152576", "MEAN_MOTION": 2.28259711, "ECCENTRICITY": 0.23295014, "INCLINATION": 6.1488, "RA_OF_ASC_NODE": 291.857, "ARG_OF_PERICENTER": 186.0008, "MEAN_ANOMALY": 328.6826, "EPHEMERIS_TYPE": 0, "CLASSIFICATION_TYPE": "U", "NORAD_CAT_ID": 66455, "ELEMENT_SET_NO": 999, "REV_AT_EPOCH": 59, "BSTAR": 0, "MEAN_MOTION_DOT": -8e-07, "MEAN_MOTION_DDOT": 0}, "tle": {"line1": "1 66455U 25261B   25344.33501334 -.00000080  00000+0  00000+0 0  9999", "line2": "2 66455   6.1488 291.8570 2329501 186.0008 328.6826  2.28259711   598"}}, "geometry": {"type": "Point", "coordinates": [-138.02866746122092, -5.782287040682302]}}, {"type": "Feature", "properties": {"norad_id": 66456, "name": "STARLINK-35643", "group": "last-30-days", "lat": 27.809334806829913, "lon": 116.65777720067439, "alt_km": 440.2104578432891, "timestamp": "2025-12-10T21:43:20.861170+00:00", "meta": {"OBJECT_NAME": "STARLINK-35643", "OBJECT_ID": "2025-262A", "EPOCH": "2025-12-10T16:00:01.999584", "MEAN_MOTION": 15.40610325, "ECCENTRICITY": 0.00013397, "INCLINATION": 43.0001, "RA_OF_ASC_NODE": 83.5588, "ARG_OF_PERICENTER": 278.2779, "MEAN_ANOMALY": 241.0706, "EPHEMERIS_TYPE": 0, "CLASSIFICATION_TYPE": "U", "NORAD_CAT_ID": 66456, "ELEMENT_SET_NO": 999, "REV_AT_EPOCH": 530, "BSTAR": 0.0029575809, "MEAN_MOTION_DOT": 0.00124911, "MEAN_MOTION_DDOT": 0}, "tle": {"line1": "1 66456U 25262A   25344.66668981  .00124911  00000+0  29576-2 0  9990", "line2": "2 66456  43.0001  83.5588 0001339 278.2779 241.0706 15.40610325  5307"}}, "geometry": {"type": "Point", "coordinates": [116.65777720067439, 27.809334806829913]}}, {"type": "Feature", "properties": {"norad_id": 66457, "name": "STARLINK-35466", "group": "last-30-days", "lat": 39.23623521489926, "lon": 143.32953141239193, "alt_km": 438.426979338059, "timestamp": "2025-12-10T21:43:20.861183+00:00", "meta": {"OBJECT_NAME": "STARLINK-35466", "OBJECT_ID": "2025-262B", "EPOCH": "2025-12-10T16:00:01.999584", "MEAN_MOTION": 15.40606969, "ECCENTRICITY": 0.00012101, "INCLINATION": 43, "RA_OF_ASC_NODE": 83.498, "ARG_OF_PERICENTER": 294.145, "MEAN_ANOMALY": 250.0893, "EPHEMERIS_TYPE": 0, "CLASSIFICATION_TYPE": "U", "NORAD_CAT_ID": 66457, "ELEMENT_SET_NO": 999, "REV_AT_EPOCH": 530, "BSTAR": 0.0032507131, "MEAN_MOTION_DOT": 0.00137536, "MEAN_MOTION_DDOT": 0}, "tle": {"line1": "1 66457U 25262B   25344.66668981  .00137536  00000+0  32507-2 0  9996", "line2": "2 66457  43.0000  83.4980 0001210 294.1450 250.0893 15.40606969  5309"}}, "geometry": {"type": "Point", "coordinates": [143.32953141239193, 39.23623521489926]}}, {"type": "Feature", "properties": {"norad_id": 66458, "name": "STARLINK-35684", "group": "last-30-days", "lat": 34.20364067589983, "lon": 128.9895453700126, "alt_km": 438.9889458707157, "timestamp": "2025-12-10T21:43:20.861193+00:00", "meta": {"OBJECT_NAME": "STARLINK-35684", "OBJECT_ID": "2025-262C", "EPOCH": "2025-12-10T14:00:03.000384", "MEAN_MOTION": 15.40660553, "ECCENTRICITY": 0.00011599, "INCLINATION": 42.9998, "RA_OF_ASC_NODE": 84.0076, "ARG_OF_PERICENTER": 293.342, "MEAN_ANOMALY": 135.6318, "EPHEMERIS_TYPE": 0, "CLASSIFICATION_TYPE": "U", "NORAD_CAT_ID": 66458, "ELEMENT_SET_NO": 999, "REV_AT_EPOCH": 529, "BSTAR": 0.001471515, "MEAN_MOTION_DOT": 0.00061582, "MEAN_MOTION_DDOT": 0}, "tle": {"line1": "1 66458U 25262C   25344.58336806  .00061582  00000+0  14715-2 0  9994", "line2": "2 66458  42.9998  84.0076 0001159 293.3420 135.6318 15.40660553  5294"}}, "geometry": {"type": "Point", "coordinates": [128.9895453700126, 34.20364067589983]}}, {"type": "Feature", "properties": {"norad_id": 66459, "name": "STARLINK-35449", "group": "last-30-days", "lat": 42.25699979558145, "lon": 159.2553070259423, "alt_km": 438.252578855735, "timestamp": "2025-12-10T21:43:20.861203+00:00", "meta": {"OBJECT_NAME": "STARLINK-35449", "OBJECT_ID": "2025-262D", "EPOCH": "2025-12-10T14:00:03.000384", "MEAN_MOTION": 15.40630071, "ECCENTRICITY": 0.00012811, "INCLINATION": 43, "RA_OF_ASC_NODE": 83.9478, "ARG_OF_PERICENTER": 266.1536, "MEAN_ANOMALY": 187.8173, "EPHEMERIS_TYPE": 0, "CLASSIFICATION_TYPE": "U", "NORAD_CAT_ID": 66459, "ELEMENT_SET_NO": 999, "REV_AT_EPOCH": 529, "BSTAR": 0.0018157241, "MEAN_MOTION_DOT": 0.00076127, "MEAN_MOTION_DDOT": 0}, "tle": {"line1": "1 66459U 25262D   25344.58336806  .00076127  00000+0  18157-2 0  9990", "line2": "2 66459  43.0000  83.9478 0001281 266.1536 187.8173 15.40630071  5297"}}, "geometry": {"type": "Point", "coordinates": [159.2553070259423, 42.25699979558145]}}, {"type": "Feature", "properties": {"norad_id": 66460, "name": "STARLINK-35424", "group": "last-30-days", "lat": 42.90595050933282, "lon": 176.17503831377115, "alt_km": 438.31239045017446, "timestamp": "2025-12-10T21:43:20.861214+00:00", "meta": {"OBJECT_NAME": "STARLINK-35424", "OBJECT_ID": "2025-262E", "EPOCH": "2025-12-10T14:00:03.000384", "MEAN_MOTION": 15.40733122, "ECCENTRICITY": 0.00014449, "INCLINATION": 42.9999, "RA_OF_ASC_NODE": 83.9167, "ARG_OF_PERICENTER": 266.0784, "MEAN_ANOMALY": 200.3011, "EPHEMERIS_TYPE": 0, "CLASSIFICATION_TYPE": "U", "NORAD_CAT_ID": 66460, "ELEMENT_SET_NO": 999, "REV_AT_EPOCH": 529, "BSTAR": -0.0023631979, "MEAN_MOTION_DOT": -0.00097872, "MEAN_MOTION_DDOT": 0}, "tle": {"line1": "1 66460U 25262E   25344.58336806 -.00097872  00000+0 -23632-2 0  9998", "line2": "2 66460  42.9999  83.9167 0001444 266.0784 200.3011 15.40733122  5297"}}, "geometry": {"type": "Point", "coordinates": [176.17503831377115, 42.90595050933282]}}, {"type": "Feature", "properties": {"norad_id": 66461, "name": "STARLINK-35132", "group": "last-30-days", "lat": 41.072118102047135, "lon": -167.2323471059793, "alt_km": 438.81205586644865, "timestamp": "2025-12-10T21:43:20.861227+00:00", "meta": {"OBJECT_NAME": "STARLINK-35132", "OBJECT_ID": "2025-262F", "EPOCH": "2025-12-10T14:00:03.000384", "MEAN_MOTION": 15.40804853, "ECCENTRICITY": 0.00015974, "INCLINATION": 43.0001, "RA_OF_ASC_NODE": 83.8872, "ARG_OF_PERICENTER": 280.8883, "MEAN_ANOMALY": 197.9201, "EPHEMERIS_TYPE": 0, "CLASSIFICATION_TYPE": "U", "NORAD_CAT_ID": 66461, "ELEMENT_SET_NO": 999, "REV_AT_EPOCH": 529, "BSTAR": -0.0062501543, "MEAN_MOTION_DOT": -0.00253786, "MEAN_MOTION_DDOT": 0}, "tle": {"line1": "1 66461U 25262F   25344.58336806 -.00253786  00000+0 -62502-2 0  9996", "line2": "2 66461  43.0001  83.8872 0001597 280.8883 197.9201 15.40804853  5291"}}, "geometry": {"type": "Point", "coordinates": [-167.2323471059793, 41.072118102047135]}}, {"type": "Feature", "properties": {"norad_id": 66462, "name": "STARLINK-35499", "group": "last-30-days", "lat": 37.05079890610166, "lon": -152.11108417592348, "alt_km": 439.1215293126179, "timestamp": "2025-12-10T21:43:20.861237+00:00", "meta": {"OBJECT_NAME": "STARLINK-35499", "OBJECT_ID": "2025-262G", "EPOCH": "2025-12-10T14:00:03.000384", "MEAN_MOTION": 15.40623878, "ECCENTRICITY": 0.00013602, "INCLINATION": 43, "RA_OF_ASC_NODE": 83.8542, "ARG_OF_PERICENTER": 280.3529, "MEAN_ANOMALY": 210.9442, "EPHEMERIS_TYPE": 0, "CLASSIFICATION_TYPE": "U", "NORAD_CAT_ID": 66462, "ELEMENT_SET_NO": 999, "REV_AT_EPOCH": 529, "BSTAR": 0.0016741574, "MEAN_MOTION_DOT": 0.00070097, "MEAN_MOTION_DDOT": 0}, "tle": {"line1": "1 66462U 25262G   25344.58336806  .00070097  00000+0  16742-2 0  9992", "line2": "2 66462  43.0000  83.8542 0001360 280.3529 210.9442 15.40623878  5294"}}, "geometry": {"type": "Point", "coordinates": [-152.11108417592348, 37.05079890610166]}}, {"type": "Feature", "properties": {"norad_id": 66463, "name": "STARLINK-35463", "group": "last-30-days", "lat": 24.33368069071402, "lon": -127.09101514873693, "alt_km": 441.1289970506541, "timestamp": "2025-12-10T21:43:20.861247+00:00", "meta": {"OBJECT_NAME": "STARLINK-35463", "OBJECT_ID": "2025-262H", "EPOCH": "2025-12-10T14:00:03.000384", "MEAN_MOTION": 15.4060153, "ECCENTRICITY": 0.00017757, "INCLINATION": 43.0002, "RA_OF_ASC_NODE": 83.7949, "ARG_OF_PERICENTER": 271.7741, "MEAN_ANOMALY": 244.4489, "EPHEMERIS_TYPE": 0, "CLASSIFICATION_TYPE": "U", "NORAD_CAT_ID": 66463, "ELEMENT_SET_NO": 999, "REV_AT_EPOCH": 529, "BSTAR": 0.001785969, "MEAN_MOTION_DOT": 0.00074791, "MEAN_MOTION_DDOT": 0}, "tle": {"line1": "1 66463U 25262H   25344.58336806  .00074791  00000+0  17860-2 0  9990", "line2": "2 66463  43.0002  83.7949 0001775 271.7741 244.4489 15.40601530  5291"}}, "geometry": {"type": "Point", "coordinates": [-127.09101514873693, 24.33368069071402]}}, {"type": "Feature", "properties": {"norad_id": 66464, "name": "STARLINK-35435", "group": "last-30-days", "lat": 31.32928585477535, "lon": -138.81409299585434, "alt_km": 440.36419885448777, "timestamp": "2025-12-10T21:43:20.861261+00:00", "meta": {"OBJECT_NAME": "STARLINK-35435", "OBJECT_ID": "2025-262J", "EPOCH": "2025-12-10T14:00:03.000384", "MEAN_MOTION": 15.40649786, "ECCENTRICITY": 0.00020195, "INCLINATION": 43.0001, "RA_OF_ASC_NODE": 83.8253, "ARG_OF_PERICENTER": 293.1453, "MEAN_ANOMALY": 210.5054, "EPHEMERIS_TYPE": 0, "CLASSIFICATION_TYPE": "U", "NORAD_CAT_ID": 66464, "ELEMENT_SET_NO": 999, "REV_AT_EPOCH": 529, "BSTAR": 0.0020606641, "MEAN_MOTION_DOT": 0.00086615, "MEAN_MOTION_DDOT": 0}, "tle": {"line1": "1 66464U 25262J   25344.58336806  .00086615  00000+0  20607-2 0  9992", "line2": "2 66464  43.0001  83.8253 0002019 293.1453 210.5054 15.40649786  5297"}}, "geometry": {"type": "Point", "coordinates": [-138.81409299585434, 31.32928585477535]}}]}